QIANFAN-1               
1 60379U 24140A   25347.95173085  .00000112  00000+0  15422-3 0  9995
2 60379  88.9760 299.1545 0016157 206.7081 153.3239 13.50978277 67518
QIANFAN-2               
1 60380U 24140B   25347.90665860  .00000128  00000+0  17905-3 0  9994
2 60380  88.9747 298.9984 0012304 175.2278 184.8993 13.50981953 67563
QIANFAN-3               
1 60381U 24140C   25347.91482228  .00000110  00000+0  15177-3 0  9991
2 60381  88.9739 299.1301 0013010 189.1168 170.9749 13.50982440 67475
QIANFAN-4               
1 60382U 24140D   25347.89000412  .00000107  00000+0  14767-3 0  9990
2 60382  88.9765 299.0304 0012438 178.1479 181.9721 13.50978387 67593
QIANFAN-5               
1 60383U 24140E   25347.93951184  .00000126  00000+0  17721-3 0  9991
2 60383  88.9739 299.1529 0013953 201.7345 158.3215 13.50980166 67463
QIANFAN-6               
1 60384U 24140F   25347.96010485  .00000113  00000+0  15697-3 0  9991
2 60384  88.9766 298.8973 0012378 184.2100 175.8950 13.50980544 67669
QIANFAN-7               
1 60385U 24140G   25347.93621641  .00000969  00000+0  38698-3 0  9996
2 60385  88.9781 293.5803 0016881  42.2315 318.0176 14.27651324 70565
QIANFAN-8               
1 60386U 24140H   25347.89430219  .00000124  00000+0  17328-3 0  9991
2 60386  88.9767 299.1416 0015739 188.5145 171.5742 13.50978442 67507
